OBJECT_NAME,OBJECT_ID,EPOCH,MEAN_MOTION,ECCENTRICITY,INCLINATION,RA_OF_ASC_NODE,ARG_OF_PERICENTER,MEAN_ANOMALY,EPHEMERIS_TYPE,CLASSIFICATION_TYPE,NORAD_CAT_ID,ELEMENT_SET_NO,REV_AT_EPOCH,BSTAR,MEAN_MOTION_DOT,MEAN_MOTION_DDOT
SAUDISAT 2,2004-025F,2026-06-18T22:51:14.954688,14.56684729,.00235383,98.5507,169.9798,292.5681,67.3025,0,U,28371,999,16600,.50287422E-4,.175E-5,0
COSMOS 2407,2004-028A,2026-06-18T17:42:17.291232,13.76334853,.00378601,82.9607,73.6859,247.4312,172.0403,0,U,28380,999,10009,.4880645E-4,.63E-6,0
COSMOS 2414,2005-002A,2026-06-18T18:17:44.004768,13.87926644,.00393828,82.9498,42.4551,326.7083,33.1603,0,U,28521,999,8403,.24703291E-4,.45E-6,0
INMARSAT 4-F1,2005-009A,2026-06-18T18:54:06.097248,1.00271302,.0002613,5.1714,42.7664,44.2002,281.6887,0,U,28628,999,7768,0,.24E-6,0
SJ-7,2005-024A,2026-06-18T14:28:36.783264,15.21561340,.00162006,97.7278,199.7449,33.3423,326.8829,0,U,28737,999,14824,.27961213E-3,.625E-4,0
CUBESAT XI-V,2005-043F,2026-06-18T23:10:08.118336,14.72635479,.00137711,98.2987,325.6244,194.9475,165.1327,0,U,28895,999,10201,.17622937E-3,.1071E-4,0
HINODE (SOLAR-B),2006-041A,2026-06-18T18:03:27.627840,14.68624897,.00159781,98.0545,185.8818,284.3528,75.5904,0,U,29479,999,5510,.9754981E-4,.519E-5,0
SHIJIAN-6 02B (SJ-6 02B),2006-046B,2026-06-19T00:18:00.747360,15.01380804,.0015397,97.7153,199.0602,55.3791,304.8883,0,U,29506,999,7101,.79403947E-4,.965E-5,0
DMSP 5D-3 F17 (USA 191),2006-050A,2026-06-18T22:29:58.162272,14.14993114,.00111112,98.7378,176.4718,54.8521,305.3693,0,U,29522,999,1267,.13718536E-4,-.17E-6,0
LAPAN-TUBSAT,2007-001A,2026-06-18T22:30:26.098848,14.85949684,.00120267,98.1338,169.2012,173.7750,186.3616,0,U,29709,999,5141,.12887734E-4,.55E-6,0
HAIYANG-1B,2007-010A,2026-06-18T21:25:38.949024,14.31027257,.00131238,98.3495,151.6719,191.1688,168.9207,0,U,31113,999,88,.41152859E-4,.67E-6,0
COSMO-SKYMED 2,2007-059A,2026-06-18T23:36:42.925824,14.82156253,.0001355,97.8886,353.5557,87.8582,272.2787,0,U,32376,999,227,.42283209E-4,.284E-5,0
CARTOSAT-2A,2008-021A,2026-06-18T22:34:23.145888,14.79239357,.00132248,97.7627,218.5893,103.7335,256.5350,0,U,32783,999,97906,.16647654E-4,.74E-6,0
CUTE-1.7+APD II (CO-65),2008-021C,2026-06-18T21:44:41.593344,15.09464113,.00095766,97.8275,151.3603,33.3397,326.8433,0,U,32785,999,98545,.27890163E-3,.4403E-4,0
SEEDS II (CO-66),2008-021J,2026-06-18T10:35:22.532928,15.32786684,.000089,97.7517,167.3987,357.5135,2.6101,0,U,32791,999,98748,.44622E-3,.14056E-3,0
YUBILEINY (RS30),2008-025A,2026-06-18T22:47:13.119360,12.43179362,.00187722,82.5038,354.3433,309.8261,50.1167,0,U,32953,999,81991,-.22693453E-3,-.22E-6,0
FENGYUN 3A,2008-026A,2026-06-18T17:44:04.050528,14.19571456,.00096411,98.6883,110.5431,119.6023,240.6115,0,U,32958,999,93562,.50314536E-4,.63E-6,0
HUANJING 1A (HJ-1A),2008-041A,2026-06-18T23:41:05.465184,14.83989981,.00201294,97.6681,155.7559,129.2708,231.0296,0,U,33320,999,95867,.14091483E-3,.1125E-4,0
HUANJING 1B (HJ-1B),2008-041B,2026-06-18T22:57:43.871328,14.83318556,.00361922,97.6519,158.8934,175.0667,185.0911,0,U,33321,999,95867,.33280295E-4,.223E-5,0
SHIJIAN-6 03A (SJ-6 03A),2008-053A,2026-06-18T23:04:30.897408,15.17179647,.00114481,97.8406,203.3437,14.5419,345.6141,0,U,33408,999,96323,.19807962E-3,.3867E-4,0
SHIJIAN-6 03B (SJ-6 03B),2008-053B,2026-06-18T23:05:42.847008,15.04308254,.00206397,97.8566,189.8836,39.2768,320.9950,0,U,33409,999,96301,.2142924E-4,.234E-5,0
